{
  "type": "FeatureCollection",
  "features": [
    {
      "type": "Feature",
      "properties": {
        "id": "apron-main",
        "name": "Main Apron"
      },
      "geometry": {
        "type": "Polygon",
        "coordinates": [
          [
            [
              6.198853,
              49.62869
            ],
            [
              6.209947,
              49.62869
            ],
            [
              6.209947,
              49.625097
            ],
            [
              6.198853,
              49.625097
            ],
            [
              6.198853,
              49.62869
            ]
          ]
        ]
      }
    }
  ]
}
