{
  "type": "FeatureCollection",
  "features": [
    {
      "type": "Feature",
      "properties": {
        "id": "09L-27R",
        "name": "Runway 09L/27R",
        "heading": 90,
        "height_m": 1.2
      },
      "geometry": {
        "type": "Polygon",
        "coordinates": [
          [
            [
              6.180133,
              49.624917
            ],
            [
              6.228667,
              49.624917
            ],
            [
              6.228667,
              49.624378
            ],
            [
              6.180133,
              49.624378
            ],
            [
              6.180133,
              49.624917
            ]
          ]
        ]
      }
    },
    {
      "type": "Feature",
      "properties": {
        "id": "09R-27L",
        "name": "Runway 09R/27L",
        "heading": 90,
        "height_m": 1.2
      },
      "geometry": {
        "type": "Polygon",
        "coordinates": [
          [
            [
              6.180133,
              49.622222
            ],
            [
              6.228667,
              49.622222
            ],
            [
              6.228667,
              49.621683
            ],
            [
              6.180133,
              49.621683
            ],
            [
              6.180133,
              49.622222
            ]
          ]
        ]
      }
    }
  ]
}
